CCSDS_OMM_VERS = 2.0
CREATION_DATE  = 
ORIGINATOR     = 

OBJECT_NAME    = STARLINK-36321
OBJECT_ID      = 2026-041G
CENTER_NAME    = EARTH
REF_FRAME      = TEME
TIME_SYSTEM    = UTC
MEAN_ELEMENT_THEORY = SGP/SGP4

EPOCH          = 2026-03-28T20:02:45.775392
MEAN_MOTION    = 15.75307249
ECCENTRICITY   = .0001206
INCLINATION    = 53.1585
RA_OF_ASC_NODE = 326.4078
ARG_OF_PERICENTER = 36.5325
MEAN_ANOMALY   = 323.5778

EPHEMERIS_TYPE = 0
CLASSIFICATION_TYPE = U
NORAD_CAT_ID   = 68046
ELEMENT_SET_NO = 999
REV_AT_EPOCH   = 424
BSTAR          = .17987E-2
MEAN_MOTION_DOT = .285441E-2
MEAN_MOTION_DDOT = 0

CCSDS_OMM_VERS = 2.0
CREATION_DATE  = 
ORIGINATOR     = 

OBJECT_NAME    = STARLINK-36181
OBJECT_ID      = 2026-041H
CENTER_NAME    = EARTH
REF_FRAME      = TEME
TIME_SYSTEM    = UTC
MEAN_ELEMENT_THEORY = SGP/SGP4

EPOCH          = 2026-03-28T20:00:01.999008
MEAN_MOTION    = 15.75302189
ECCENTRICITY   = .0001004
INCLINATION    = 53.1590
RA_OF_ASC_NODE = 326.2071
ARG_OF_PERICENTER = 105.7982
MEAN_ANOMALY   = 346.5364

EPHEMERIS_TYPE = 0
CLASSIFICATION_TYPE = U
NORAD_CAT_ID   = 68047
ELEMENT_SET_NO = 999
REV_AT_EPOCH   = 533
BSTAR          = -.73394E-3
MEAN_MOTION_DOT = -.111972E-2
MEAN_MOTION_DDOT = 0

CCSDS_OMM_VERS = 2.0
CREATION_DATE  = 
ORIGINATOR     = 

OBJECT_NAME    = STARLINK-36318
OBJECT_ID      = 2026-041J
CENTER_NAME    = EARTH
REF_FRAME      = TEME
TIME_SYSTEM    = UTC
MEAN_ELEMENT_THEORY = SGP/SGP4

EPOCH          = 2026-03-28T20:35:55.047264
MEAN_MOTION    = 15.75263512
ECCENTRICITY   = .0000905
INCLINATION    = 53.1596
RA_OF_ASC_NODE = 326.5614
ARG_OF_PERICENTER = 74.2404
MEAN_ANOMALY   = 285.8716

EPHEMERIS_TYPE = 0
CLASSIFICATION_TYPE = U
NORAD_CAT_ID   = 68048
ELEMENT_SET_NO = 999
REV_AT_EPOCH   = 424
BSTAR          = .19854E-2
MEAN_MOTION_DOT = .315684E-2
MEAN_MOTION_DDOT = 0

CCSDS_OMM_VERS = 2.0
CREATION_DATE  = 
ORIGINATOR     = 

OBJECT_NAME    = STARLINK-36885
OBJECT_ID      = 2026-041K
CENTER_NAME    = EARTH
REF_FRAME      = TEME
TIME_SYSTEM    = UTC
MEAN_ELEMENT_THEORY = SGP/SGP4

EPOCH          = 2026-03-28T16:01:21.167040
MEAN_MOTION    = 15.75472133
ECCENTRICITY   = .0000904
INCLINATION    = 53.1607
RA_OF_ASC_NODE = 327.5041
ARG_OF_PERICENTER = 283.8681
MEAN_ANOMALY   = 76.2239

EPHEMERIS_TYPE = 0
CLASSIFICATION_TYPE = U
NORAD_CAT_ID   = 68049
ELEMENT_SET_NO = 999
REV_AT_EPOCH   = 421
BSTAR          = .28815E-2
MEAN_MOTION_DOT = .47137E-2
MEAN_MOTION_DDOT = 0

CCSDS_OMM_VERS = 2.0
CREATION_DATE  = 
ORIGINATOR     = 

OBJECT_NAME    = STARLINK-36945
OBJECT_ID      = 2026-041L
CENTER_NAME    = EARTH
REF_FRAME      = TEME
TIME_SYSTEM    = UTC
MEAN_ELEMENT_THEORY = SGP/SGP4

EPOCH          = 2026-03-28T20:00:01.999008
MEAN_MOTION    = 15.75287769
ECCENTRICITY   = .0001108
INCLINATION    = 53.1591
RA_OF_ASC_NODE = 326.2632
ARG_OF_PERICENTER = 75.2011
MEAN_ANOMALY   = 349.5270

EPHEMERIS_TYPE = 0
CLASSIFICATION_TYPE = U
NORAD_CAT_ID   = 68050
ELEMENT_SET_NO = 999
REV_AT_EPOCH   = 545
BSTAR          = -.77372E-3
MEAN_MOTION_DOT = -.117854E-2
MEAN_MOTION_DDOT = 0

CCSDS_OMM_VERS = 2.0
CREATION_DATE  = 
ORIGINATOR     = 

OBJECT_NAME    = STARLINK-35911
OBJECT_ID      = 2026-041M
CENTER_NAME    = EARTH
REF_FRAME      = TEME
TIME_SYSTEM    = UTC
MEAN_ELEMENT_THEORY = SGP/SGP4

EPOCH          = 2026-03-28T20:00:01.999008
MEAN_MOTION    = 15.75279328
ECCENTRICITY   = .0001373
INCLINATION    = 53.1592
RA_OF_ASC_NODE = 326.2106
ARG_OF_PERICENTER = 108.3169
MEAN_ANOMALY   = 342.1651

EPHEMERIS_TYPE = 0
CLASSIFICATION_TYPE = U
NORAD_CAT_ID   = 68051
ELEMENT_SET_NO = 999
REV_AT_EPOCH   = 541
BSTAR          = -.61573E-3
MEAN_MOTION_DOT = -.94148E-3
MEAN_MOTION_DDOT = 0

CCSDS_OMM_VERS = 2.0
CREATION_DATE  = 
ORIGINATOR     = 

OBJECT_NAME    = STARLINK-35808
OBJECT_ID      = 2026-041N
CENTER_NAME    = EARTH
REF_FRAME      = TEME
TIME_SYSTEM    = UTC
MEAN_ELEMENT_THEORY = SGP/SGP4

EPOCH          = 2026-03-28T20:03:14.283936
MEAN_MOTION    = 15.75388916
ECCENTRICITY   = .0001323
INCLINATION    = 53.1578
RA_OF_ASC_NODE = 326.4084
ARG_OF_PERICENTER = 156.5228
MEAN_ANOMALY   = 203.5853

EPHEMERIS_TYPE = 0
CLASSIFICATION_TYPE = U
NORAD_CAT_ID   = 68052
ELEMENT_SET_NO = 999
REV_AT_EPOCH   = 424
BSTAR          = .28241E-2
MEAN_MOTION_DOT = .459623E-2
MEAN_MOTION_DDOT = 0

CCSDS_OMM_VERS = 2.0
CREATION_DATE  = 
ORIGINATOR     = 

OBJECT_NAME    = STARLINK-36919
OBJECT_ID      = 2026-041P
CENTER_NAME    = EARTH
REF_FRAME      = TEME
TIME_SYSTEM    = UTC
MEAN_ELEMENT_THEORY = SGP/SGP4

EPOCH          = 2026-03-28T20:00:01.999008
MEAN_MOTION    = 15.75296387
ECCENTRICITY   = .0000663
INCLINATION    = 53.1589
RA_OF_ASC_NODE = 326.1572
ARG_OF_PERICENTER = 81.8410
MEAN_ANOMALY   = 34.3875

EPHEMERIS_TYPE = 0
CLASSIFICATION_TYPE = U
NORAD_CAT_ID   = 68053
ELEMENT_SET_NO = 999
REV_AT_EPOCH   = 545
BSTAR          = -.82757E-3
MEAN_MOTION_DOT = -.125934E-2
MEAN_MOTION_DDOT = 0

CCSDS_OMM_VERS = 2.0
CREATION_DATE  = 
ORIGINATOR     = 

OBJECT_NAME    = STARLINK-36924
OBJECT_ID      = 2026-041Q
CENTER_NAME    = EARTH
REF_FRAME      = TEME
TIME_SYSTEM    = UTC
MEAN_ELEMENT_THEORY = SGP/SGP4

EPOCH          = 2026-03-28T20:29:22.830144
MEAN_MOTION    = 15.75537243
ECCENTRICITY   = .0000588
INCLINATION    = 53.1594
RA_OF_ASC_NODE = 326.5310
ARG_OF_PERICENTER = 228.0480
MEAN_ANOMALY   = 132.0490

EPHEMERIS_TYPE = 0
CLASSIFICATION_TYPE = U
NORAD_CAT_ID   = 68054
ELEMENT_SET_NO = 999
REV_AT_EPOCH   = 424
BSTAR          = .3091E-2
MEAN_MOTION_DOT = .50949E-2
MEAN_MOTION_DDOT = 0

CCSDS_OMM_VERS = 2.0
CREATION_DATE  = 
ORIGINATOR     = 

OBJECT_NAME    = STARLINK-35998
OBJECT_ID      = 2026-041R
CENTER_NAME    = EARTH
REF_FRAME      = TEME
TIME_SYSTEM    = UTC
MEAN_ELEMENT_THEORY = SGP/SGP4

EPOCH          = 2026-03-28T15:22:08.253120
MEAN_MOTION    = 15.75341623
ECCENTRICITY   = .0002099
INCLINATION    = 53.1581
RA_OF_ASC_NODE = 327.3224
ARG_OF_PERICENTER = 105.6472
MEAN_ANOMALY   = 254.4780

EPHEMERIS_TYPE = 0
CLASSIFICATION_TYPE = U
NORAD_CAT_ID   = 68055
ELEMENT_SET_NO = 999
REV_AT_EPOCH   = 421
BSTAR          = .20023E-2
MEAN_MOTION_DOT = .319593E-2
MEAN_MOTION_DDOT = 0

CCSDS_OMM_VERS = 2.0
CREATION_DATE  = 
ORIGINATOR     = 

OBJECT_NAME    = STARLINK-36845
OBJECT_ID      = 2026-041S
CENTER_NAME    = EARTH
REF_FRAME      = TEME
TIME_SYSTEM    = UTC
MEAN_ELEMENT_THEORY = SGP/SGP4

EPOCH          = 2026-03-28T19:49:41.099232
MEAN_MOTION    = 15.75382212
ECCENTRICITY   = .0001487
INCLINATION    = 53.1599
RA_OF_ASC_NODE = 326.3463
ARG_OF_PERICENTER = 178.8549
MEAN_ANOMALY   = 181.2475

EPHEMERIS_TYPE = 0
CLASSIFICATION_TYPE = U
NORAD_CAT_ID   = 68056
ELEMENT_SET_NO = 999
REV_AT_EPOCH   = 424
BSTAR          = .25177E-2
MEAN_MOTION_DOT = .406986E-2
MEAN_MOTION_DDOT = 0

CCSDS_OMM_VERS = 2.0
CREATION_DATE  = 
ORIGINATOR     = 

OBJECT_NAME    = STARLINK-36954
OBJECT_ID      = 2026-041T
CENTER_NAME    = EARTH
REF_FRAME      = TEME
TIME_SYSTEM    = UTC
MEAN_ELEMENT_THEORY = SGP/SGP4

EPOCH          = 2026-03-28T20:28:54.630048
MEAN_MOTION    = 15.75234199
ECCENTRICITY   = .0001018
INCLINATION    = 53.1604
RA_OF_ASC_NODE = 326.5271
ARG_OF_PERICENTER = 46.5811
MEAN_ANOMALY   = 313.5294

EPHEMERIS_TYPE = 0
CLASSIFICATION_TYPE = U
NORAD_CAT_ID   = 68057
ELEMENT_SET_NO = 999
REV_AT_EPOCH   = 424
BSTAR          = .18759E-2
MEAN_MOTION_DOT = .29719E-2
MEAN_MOTION_DDOT = 0

